FENGYUN 1C DEB          
1 31685U 99025CCT 17345.90708428 -.00000094  00000-0 -27944-4 0  9991
2 31685  99.0582   3.9982 0016986 167.9164 311.2659 14.08830670539273
